OBJECT_NAME,OBJECT_ID,EPOCH,MEAN_MOTION,ECCENTRICITY,INCLINATION,RA_OF_ASC_NODE,ARG_OF_PERICENTER,MEAN_ANOMALY,EPHEMERIS_TYPE,CLASSIFICATION_TYPE,NORAD_CAT_ID,ELEMENT_SET_NO,REV_AT_EPOCH,BSTAR,MEAN_MOTION_DOT,MEAN_MOTION_DDOT
QZS-3 (MICHIBIKI-3),2017-048A,2026-07-15T00:07:56.051904,1.00272188,.000251,0.0657,214.5440,272.0036,295.3328,0,U,42917,999,3253,0,-.357E-5,0
AMAZONAS 5,2017-053A,2026-07-14T01:08:59.868096,1.00268891,.00010296,0.0321,328.7293,114.1312,165.2908,0,U,42934,999,3231,0,-.288E-5,0
ASIASAT 9,2017-057A,2026-07-15T05:23:35.604960,1.00269930,.0002356,0.0138,42.4636,64.0328,29.5821,0,U,42942,999,3214,0,-.369E-5,0
INTELSAT 37E (IS-37E),2017-059A,2026-07-15T03:01:09.799968,1.00269756,.0002588,0.0178,44.9424,78.6131,196.6933,0,U,42950,999,3234,0,-.15E-5,0
BSAT-4A,2017-059B,2026-07-13T12:16:30.855936,1.00272286,.00033938,0.0357,21.9752,56.7278,146.6395,0,U,42951,999,3206,0,-.354E-5,0
QZS-4 (MICHIBIKI-4),2017-062A,2026-07-12T17:38:03.472224,1.00290649,.07474587,40.0933,343.1604,268.5188,82.4158,0,U,42965,999,3205,0,-.331E-5,0
SES-11 (ECHOSTAR 105),2017-063A,2026-07-15T01:54:15.458112,1.00271055,.0002661,0.0379,298.3734,164.9020,113.2623,0,U,42967,999,3200,0,-.98E-6,0
KOREASAT 5A,2017-067A,2026-07-15T01:46:51.773376,1.00269881,.0000724,0.0136,52.4701,70.3771,309.9371,0,U,42984,999,3180,0,-.367E-5,0
ALCOMSAT 1,2017-078A,2026-07-15T02:59:09.993408,1.00268723,.0002221,0.0526,263.1385,207.3922,202.4164,0,U,43039,999,3157,0,-.196E-5,0
SBIRS GEO-3 (USA 282),2018-009A,2026-07-14T05:48:57.249792,1.00271888,.00017107,2.2038,13.3520,99.8132,106.7887,0,U,43162,999,3111,0,.121E-5,0
AL YAH 3,2018-012A,2026-07-15T03:00:32.361120,1.00270694,.0003533,1.6218,82.7676,30.3258,204.9048,0,U,43174,999,3112,0,-.166E-5,0
SES-14,2018-012B,2026-07-14T04:38:13.862400,1.00270728,.0000801,0.0126,28.6879,93.5684,191.8510,0,U,43175,999,729,0,-.285E-5,0
GOES 17,2018-022A,2026-07-15T02:40:45.314976,1.00271073,.0000546,1.0066,85.2588,80.6796,77.7183,0,U,43226,999,3070,0,-.192E-5,0
HISPASAT 30W-6,2018-023A,2026-07-14T03:00:32.972832,1.00270644,.00051302,0.0444,50.2849,39.9946,216.8713,0,U,43228,999,3067,0,-.222E-5,0
SUPERBIRD-B3,2018-033A,2026-07-15T04:50:38.802336,1.00270733,.0001018,0.0135,47.7260,79.7447,40.2472,0,U,43271,999,3034,0,-.102E-5,0
HYLAS 4,2018-033B,2026-07-14T06:24:53.803296,1.00273252,.00009517,0.0212,297.9158,192.8371,224.1076,0,U,43272,999,3033,0,-.24E-5,0
IRNSS-1I,2018-035A,2026-07-15T00:25:20.429184,1.00271572,.0018506,28.8178,73.7623,178.3910,102.1108,0,U,43286,999,3035,0,.56E-6,0
USA 283,2018-036A,2026-07-13T12:26:22.439328,1.00270146,.000101,0.0181,51.7317,164.1991,36.1561,0,U,43339,999,2555,0,0,0
COSMOS 2526,2018-037A,2026-07-15T00:17:30.350976,1.00268298,.0000822,0.0358,106.6288,157.1060,161.5486,0,U,43432,999,3023,0,-.354E-5,0
APSTAR-6C,2018-041A,2026-07-14T16:13:15.007296,1.00273807,.0000779,0.0593,289.3735,296.5328,83.9303,0,U,43450,999,3008,0,-.326E-5,0
BANGABANDHUSAT-1,2018-044A,2026-07-15T00:14:53.102112,1.00270146,.0001678,0.0228,95.1836,30.9552,289.5356,0,U,43463,999,2998,0,-.371E-5,0
SES-12,2018-049A,2026-07-15T03:33:21.715200,1.00269351,.0000822,0.0109,16.8424,236.1009,188.3882,0,U,43488,999,2970,0,-.278E-5,0
FENGYUN 2H,2018-050A,2026-07-15T01:46:12.400032,1.00267153,.0002319,3.1003,78.7376,134.4195,185.4544,0,U,43491,999,2971,0,-.138E-5,0
BEIDOU-2 IGSO-7,2018-057A,2026-07-01T21:23:21.693984,1.00246939,.01049468,55.1981,162.9292,237.8611,308.6338,0,U,43539,999,2927,0,-.33E-6,0
TELSTAR 19V,2018-059A,2026-07-14T18:15:03.146112,1.00272438,.00026418,0.0283,145.1875,341.1065,17.0859,0,U,43562,999,2942,0,-.288E-5,0
TELKOM 4 (MERAH PUTIH),2018-064A,2026-07-14T07:05:12.439104,1.00269319,.0000994,0.0219,81.5910,39.4509,25.4085,0,U,43587,999,2915,0,-.351E-5,0
TELSTAR 18V,2018-069A,2026-07-13T12:29:20.367168,1.00269998,.00016639,0.0151,318.0250,158.6111,140.0899,0,U,43611,999,2890,0,-.298E-5,0
AZERSPACE 2 (IS-38),2018-074A,2026-07-15T03:19:08.078016,1.00270804,.0001252,0.0171,54.9155,66.1262,266.8328,0,U,43632,999,2872,0,.127E-5,0
HORIZONS-3E,2018-074B,2026-07-13T15:21:38.465856,1.00270118,.00009408,0.0498,224.9289,53.6947,52.2963,0,U,43633,999,2860,0,-.35E-6,0
AEHF-4 (USA 288),2018-079A,2026-07-15T01:04:08.501376,1.00276372,.0058538,1.4399,6.2949,353.9222,241.1575,0,U,43651,999,2857,0,-.284E-5,0
BEIDOU-3 G1,2018-085A,2026-07-15T03:51:57.431232,1.00272490,.0008007,2.9363,96.6113,356.5341,57.8180,0,U,43683,999,2834,0,-.12E-5,0
